{
  "type": "FeatureCollection",
  "name": "prefeitura_buildings",
  "features": [
    {
      "type": "Feature",
      "properties": {
        "id": 1,
        "name": "Prefeitura Municipal de Três Corações",
        "address": "Av. Brasil, 225 - Jardim América, Três Corações - MG",
        "latitude": -21.67083,
        "longitude": -45.26903,
        "floors_count": 2
      },
      "geometry": {
        "type": "Polygon",
        "coordinates": [
          [
            [
              -45.2695445,
              -21.670545
            ],
            [
              -45.2692872,
              -21.6710523
            ],
            [
              -45.2689639,
              -21.6709106
            ],
            [
              -45.2689851,
              -21.6708688
            ],
            [
              -45.2689034,
              -21.670833
            ],
            [
              -45.2688805,
              -21.6708782
            ],
            [
              -45.2688122,
              -21.6708482
            ],
            [
              -45.2690924,
              -21.670296
            ],
            [
              -45.2691872,
              -21.6703375
            ],
            [
              -45.2691658,
              -21.6703797
            ],
            [
              -45.2689727,
              -21.6707602
            ],
            [
              -45.2690744,
              -21.6708047
            ],
            [
              -45.2692675,
              -21.6704241
            ],
            [
              -45.2693533,
              -21.6704617
            ],
            [
              -45.2691604,
              -21.6708418
            ],
            [
              -45.2691793,
              -21.67085
            ],
            [
              -45.2691702,
              -21.6708681
            ],
            [
              -45.2692598,
              -21.6709074
            ],
            [
              -45.269462,
              -21.6705089
            ],
            [
              -45.2695445,
              -21.670545
            ]
          ]
        ]
      }
    }
  ]
}